{
  "type": "FeatureCollection",
  "features": [
    {
      "type": "Feature",
      "properties": {
        "norad_id": 36045,
        "name": "COSMOS 2251 DEB",
        "group": "cosmos-2251-debris",
        "lat": -60.74522831328439,
        "lon": 39.47665897029634,
        "alt_km": 699.8234929008477,
        "timestamp": "2025-12-06T18:50:10.566787+00:00",
        "meta_object_name": "COSMOS 2251 DEB",
        "meta_object_id": "1993-036AXG",
        "meta_epoch": "2025-12-01T23:07:36.106176",
        "meta_mean_motion": 14.69377741,
        "meta_eccentricity": 0.00488719,
        "meta_inclination": 73.7639,
        "meta_ra_of_asc_node": 80.3157,
        "meta_arg_of_pericenter": 97.908,
        "meta_mean_anomaly": 262.764,
        "meta_ephemeris_type": 0,
        "meta_classification_type": "U",
        "meta_norad_cat_id": 36045,
        "meta_element_set_no": 999,
        "meta_rev_at_epoch": 8230,
        "meta_bstar": 0.0029815468,
        "meta_mean_motion_dot": 0.0001797,
        "meta_mean_motion_ddot": 0,
        "tle_line1": "1 36045U 93036AXG 25335.96361234  .00017970  00000+0  29815-2 0  9991",
        "tle_line2": "2 36045  73.7639  80.3157 0048871  97.9080 262.7640 14.69377741 82309"
      },
      "geometry": {
        "type": "Point",
        "coordinates": [
          39.47665897029634,
          -60.74522831328439
        ]
      }
    },
    {
      "type": "Feature",
      "properties": {
        "norad_id": 36046,
        "name": "COSMOS 2251 DEB",
        "group": "cosmos-2251-debris",
        "lat": 73.67652330546196,
        "lon": 29.80736866903912,
        "alt_km": 631.7364794091663,
        "timestamp": "2025-12-06T18:50:10.566796+00:00",
        "meta_object_name": "COSMOS 2251 DEB",
        "meta_object_id": "1993-036AXH",
        "meta_epoch": "2025-12-06T03:44:04.978752",
        "meta_mean_motion": 14.65199158,
        "meta_eccentricity": 0.0055425,
        "meta_inclination": 74.0158,
        "meta_ra_of_asc_node": 289.1818,
        "meta_arg_of_pericenter": 76.9572,
        "meta_mean_anomaly": 298.4927,
        "meta_ephemeris_type": 0,
        "meta_classification_type": "U",
        "meta_norad_cat_id": 36046,
        "meta_element_set_no": 999,
        "meta_rev_at_epoch": 63907,
        "meta_bstar": 0.0011045621,
        "meta_mean_motion_dot": 6.055e-05,
        "meta_mean_motion_ddot": 0,
        "tle_line1": "1 36046U 93036AXH 25340.15561318  .00006055  00000+0  11046-2 0  9993",
        "tle_line2": "2 36046  74.0158 289.1818 0055425  76.9572 298.4927 14.65199158639075"
      },
      "geometry": {
        "type": "Point",
        "coordinates": [
          29.80736866903912,
          73.67652330546196
        ]
      }
    },
    {
      "type": "Feature",
      "properties": {
        "norad_id": 36047,
        "name": "COSMOS 2251 DEB",
        "group": "cosmos-2251-debris",
        "lat": 73.95265698212482,
        "lon": 81.77440530061756,
        "alt_km": 572.1644516948645,
        "timestamp": "2025-12-06T18:50:10.566806+00:00",
        "meta_object_name": "COSMOS 2251 DEB",
        "meta_object_id": "1993-036AXJ",
        "meta_epoch": "2025-12-06T07:11:27.868704",
        "meta_mean_motion": 14.95547906,
        "meta_eccentricity": 0.00079611,
        "meta_inclination": 74.0355,
        "meta_ra_of_asc_node": 347.1599,
        "meta_arg_of_pericenter": 12.8057,
        "meta_mean_anomaly": 347.3328,
        "meta_ephemeris_type": 0,
        "meta_classification_type": "U",
        "meta_norad_cat_id": 36047,
        "meta_element_set_no": 999,
        "meta_rev_at_epoch": 65843,
        "meta_bstar": 0.0031932011,
        "meta_mean_motion_dot": 0.00035581,
        "meta_mean_motion_ddot": 0,
        "tle_line1": "1 36047U 93036AXJ 25340.29962811  .00035581  00000+0  31932-2 0  9994",
        "tle_line2": "2 36047  74.0355 347.1599 0007961  12.8057 347.3328 14.95547906658436"
      },
      "geometry": {
        "type": "Point",
        "coordinates": [
          81.77440530061756,
          73.95265698212482
        ]
      }
    },
    {
      "type": "Feature",
      "properties": {
        "norad_id": 36048,
        "name": "COSMOS 2251 DEB",
        "group": "cosmos-2251-debris",
        "lat": -0.9373593837435888,
        "lon": 130.50453309695877,
        "alt_km": 787.2009154897341,
        "timestamp": "2025-12-06T18:50:10.566816+00:00",
        "meta_object_name": "COSMOS 2251 DEB",
        "meta_object_id": "1993-036AXK",
        "meta_epoch": "2025-12-06T04:43:29.273376",
        "meta_mean_motion": 14.37832979,
        "meta_eccentricity": 0.0026319,
        "meta_inclination": 74.0563,
        "meta_ra_of_asc_node": 311.3174,
        "meta_arg_of_pericenter": 2.7365,
        "meta_mean_anomaly": 15.8549,
        "meta_ephemeris_type": 0,
        "meta_classification_type": "U",
        "meta_norad_cat_id": 36048,
        "meta_element_set_no": 999,
        "meta_rev_at_epoch": 85408,
        "meta_bstar": 0.00050611682,
        "meta_mean_motion_dot": 1.506e-05,
        "meta_mean_motion_ddot": 0,
        "tle_line1": "1 36048U 93036AXK 25340.19686659  .00001506  00000+0  50612-3 0  9994",
        "tle_line2": "2 36048  74.0563 311.3174 0026319   2.7365  15.8549 14.37832979854082"
      },
      "geometry": {
        "type": "Point",
        "coordinates": [
          130.50453309695877,
          -0.9373593837435888
        ]
      }
    },
    {
      "type": "Feature",
      "properties": {
        "norad_id": 36049,
        "name": "COSMOS 2251 DEB",
        "group": "cosmos-2251-debris",
        "lat": 49.492930675670635,
        "lon": -68.99788232712409,
        "alt_km": 681.4542461162482,
        "timestamp": "2025-12-06T18:50:10.566826+00:00",
        "meta_object_name": "COSMOS 2251 DEB",
        "meta_object_id": "1993-036AXL",
        "meta_epoch": "2025-12-06T03:28:23.454624",
        "meta_mean_motion": 14.61998151,
        "meta_eccentricity": 0.00110964,
        "meta_inclination": 74.0304,
        "meta_ra_of_asc_node": 131.8122,
        "meta_arg_of_pericenter": 216.323,
        "meta_mean_anomaly": 143.7185,
        "meta_ephemeris_type": 0,
        "meta_classification_type": "U",
        "meta_norad_cat_id": 36049,
        "meta_element_set_no": 999,
        "meta_rev_at_epoch": 85268,
        "meta_bstar": 0.0024241499,
        "meta_mean_motion_dot": 0.00012158,
        "meta_mean_motion_ddot": 0,
        "tle_line1": "1 36049U 93036AXL 25340.14471591  .00012158  00000+0  24241-2 0  9990",
        "tle_line2": "2 36049  74.0304 131.8122 0011096 216.3230 143.7185 14.61998151852687"
      },
      "geometry": {
        "type": "Point",
        "coordinates": [
          -68.99788232712409,
          49.492930675670635
        ]
      }
    },
    {
      "type": "Feature",
      "properties": {
        "norad_id": 36050,
        "name": "COSMOS 2251 DEB",
        "group": "cosmos-2251-debris",
        "lat": 73.64857176781226,
        "lon": -76.43009003616467,
        "alt_km": 614.4422987575681,
        "timestamp": "2025-12-06T18:50:10.566860+00:00",
        "meta_object_name": "COSMOS 2251 DEB",
        "meta_object_id": "1993-036AXM",
        "meta_epoch": "2025-12-05T21:39:11.974752",
        "meta_mean_motion": 15.00885121,
        "meta_eccentricity": 0.00889859,
        "meta_inclination": 74.0313,
        "meta_ra_of_asc_node": 207.947,
        "meta_arg_of_pericenter": 289.1482,
        "meta_mean_anomaly": 70.0088,
        "meta_ephemeris_type": 0,
        "meta_classification_type": "U",
        "meta_norad_cat_id": 36050,
        "meta_element_set_no": 999,
        "meta_rev_at_epoch": 66932,
        "meta_bstar": 0.00082354593,
        "meta_mean_motion_dot": 0.00011381,
        "meta_mean_motion_ddot": 0,
        "tle_line1": "1 36050U 93036AXM 25339.90222193  .00011381  00000+0  82355-3 0  9994",
        "tle_line2": "2 36050  74.0313 207.9470 0088985 289.1482  70.0088 15.00885121669325"
      },
      "geometry": {
        "type": "Point",
        "coordinates": [
          -76.43009003616467,
          73.64857176781226
        ]
      }
    },
    {
      "type": "Feature",
      "properties": {
        "norad_id": 36053,
        "name": "COSMOS 2251 DEB",
        "group": "cosmos-2251-debris",
        "lat": -31.160313296283,
        "lon": -5.811116658203755,
        "alt_km": 711.2509048043303,
        "timestamp": "2025-12-06T18:50:10.566871+00:00",
        "meta_object_name": "COSMOS 2251 DEB",
        "meta_object_id": "1993-036AXQ",
        "meta_epoch": "2025-12-06T04:41:05.022528",
        "meta_mean_motion": 14.57036402,
        "meta_eccentricity": 0.00330469,
        "meta_inclination": 73.8695,
        "meta_ra_of_asc_node": 165.2413,
        "meta_arg_of_pericenter": 116.5127,
        "meta_mean_anomaly": 243.9431,
        "meta_ephemeris_type": 0,
        "meta_classification_type": "U",
        "meta_norad_cat_id": 36053,
        "meta_element_set_no": 999,
        "meta_rev_at_epoch": 87349,
        "meta_bstar": 0.0025260669,
        "meta_mean_motion_dot": 0.00011441,
        "meta_mean_motion_ddot": 0,
        "tle_line1": "1 36053U 93036AXQ 25340.19519702  .00011441  00000+0  25261-2 0  9994",
        "tle_line2": "2 36053  73.8695 165.2413 0033046 116.5127 243.9431 14.57036402873497"
      },
      "geometry": {
        "type": "Point",
        "coordinates": [
          -5.811116658203755,
          -31.160313296283
        ]
      }
    }
  ]
}